[{"OBJECT_NAME":"STARLINK-4186","OBJECT_ID":"2022-062BC","EPOCH":"2025-09-10T06:44:27.456576","MEAN_MOTION":15.08835933,"ECCENTRICITY":0.00012993,"INCLINATION":53.2173,"RA_OF_ASC_NODE":104.0049,"ARG_OF_PERICENTER":88.0646,"MEAN_ANOMALY":272.0495,"EPHEMERIS_TYPE":0,"CLASSIFICATION_TYPE":"U","NORAD_CAT_ID":52880,"ELEMENT_SET_NO":999,"REV_AT_EPOCH":17883,"BSTAR":1.4219192e-5,"MEAN_MOTION_DOT":-6.2e-7,"MEAN_MOTION_DDOT":0},{"OBJECT_NAME":"STARLINK-4181","OBJECT_ID":"2022-062BE","EPOCH":"2025-09-10T07:10:53.008032","MEAN_MOTION":15.08837817,"ECCENTRICITY":0.00012964,"INCLINATION":53.2172,"RA_OF_ASC_NODE":103.5018,"ARG_OF_PERICENTER":95.0774,"MEAN_ANOMALY":265.0366,"EPHEMERIS_TYPE":0,"CLASSIFICATION_TYPE":"U","NORAD_CAT_ID":52882,"ELEMENT_SET_NO":999,"REV_AT_EPOCH":17884,"BSTAR":0.00010463256,"MEAN_MOTION_DOT":1.378e-5,"MEAN_MOTION_DDOT":0},{"OBJECT_NAME":"STARLINK-4260","OBJECT_ID":"2022-076A","EPOCH":"2025-09-10T04:58:28.078752","MEAN_MOTION":15.08841761,"ECCENTRICITY":0.00013329,"INCLINATION":53.2166,"RA_OF_ASC_NODE":184.3376,"ARG_OF_PERICENTER":85.9185,"MEAN_ANOMALY":274.1959,"EPHEMERIS_TYPE":0,"CLASSIFICATION_TYPE":"U","NORAD_CAT_ID":52986,"ELEMENT_SET_NO":999,"REV_AT_EPOCH":17559,"BSTAR":0.00010371774,"MEAN_MOTION_DOT":1.363e-5,"MEAN_MOTION_DDOT":0},{"OBJECT_NAME":"STARLINK-4259","OBJECT_ID":"2022-076B","EPOCH":"2025-09-09T23:33:53.815968","MEAN_MOTION":15.08836864,"ECCENTRICITY":0.0001374,"INCLINATION":53.2163,"RA_OF_ASC_NODE":195.3504,"ARG_OF_PERICENTER":85.825,"MEAN_ANOMALY":274.2899,"EPHEMERIS_TYPE":0,"CLASSIFICATION_TYPE":"U","NORAD_CAT_ID":52987,"ELEMENT_SET_NO":999,"REV_AT_EPOCH":17542,"BSTAR":7.8564164e-5,"MEAN_MOTION_DOT":9.63e-6,"MEAN_MOTION_DDOT":0},{"OBJECT_NAME":"STARLINK-4291","OBJECT_ID":"2022-076C","EPOCH":"2025-09-10T01:42:24.555456","MEAN_MOTION":15.08833961,"ECCENTRICITY":0.00013265,"INCLINATION":53.2171,"RA_OF_ASC_NODE":184.95,"ARG_OF_PERICENTER":86.2786,"MEAN_ANOMALY":273.8358,"EPHEMERIS_TYPE":0,"CLASSIFICATION_TYPE":"U","NORAD_CAT_ID":52988,"ELEMENT_SET_NO":999,"REV_AT_EPOCH":17557,"BSTAR":0.00011559092,"MEAN_MOTION_DOT":1.552e-5,"MEAN_MOTION_DDOT":0},{"OBJECT_NAME":"STARLINK-4293","OBJECT_ID":"2022-076D","EPOCH":"2025-09-10T05:50:08.674080","MEAN_MOTION":15.0883707,"ECCENTRICITY":0.00014333,"INCLINATION":53.2156,"RA_OF_ASC_NODE":194.1765,"ARG_OF_PERICENTER":88.0362,"MEAN_ANOMALY":272.0794,"EPHEMERIS_TYPE":0,"CLASSIFICATION_TYPE":"U","NORAD_CAT_ID":52989,"ELEMENT_SET_NO":999,"REV_AT_EPOCH":17546,"BSTAR":4.6397096e-5,"MEAN_MOTION_DOT":4.5e-6,"MEAN_MOTION_DDOT":0},{"OBJECT_NAME":"STARLINK-4286","OBJECT_ID":"2022-076E","EPOCH":"2025-09-09T05:54:04.060512","MEAN_MOTION":15.08838552,"ECCENTRICITY":0.0001354,"INCLINATION":53.2166,"RA_OF_ASC_NODE":198.6569,"ARG_OF_PERICENTER":81.4313,"MEAN_ANOMALY":278.6832,"EPHEMERIS_TYPE":0,"CLASSIFICATION_TYPE":"U","NORAD_CAT_ID":52990,"ELEMENT_SET_NO":999,"REV_AT_EPOCH":17531,"BSTAR":1.7485353e-5,"MEAN_MOTION_DOT":-1.0e-7,"MEAN_MOTION_DDOT":0},{"OBJECT_NAME":"STARLINK-4285","OBJECT_ID":"2022-076F","EPOCH":"2025-09-10T02:28:46.697664","MEAN_MOTION":15.08848637,"ECCENTRICITY":0.00015061,"INCLINATION":53.2172,"RA_OF_ASC_NODE":194.8057,"ARG_OF_PERICENTER":89.2305,"MEAN_ANOMALY":270.886,"EPHEMERIS_TYPE":0,"CLASSIFICATION_TYPE":"U","NORAD_CAT_ID":52991,"ELEMENT_SET_NO":999,"REV_AT_EPOCH":17544,"BSTAR":0.00015741643,"MEAN_MOTION_DOT":2.219e-5,"MEAN_MOTION_DDOT":0},{"OBJECT_NAME":"STARLINK-4269","OBJECT_ID":"2022-076G","EPOCH":"2025-09-10T05:35:37.484736","MEAN_MOTION":15.08838543,"ECCENTRICITY":0.00013553,"INCLINATION":53.2176,"RA_OF_ASC_NODE":194.2323,"ARG_OF_PERICENTER":88.4479,"MEAN_ANOMALY":271.6668,"EPHEMERIS_TYPE":0,"CLASSIFICATION_TYPE":"U","NORAD_CAT_ID":52992,"ELEMENT_SET_NO":999,"REV_AT_EPOCH":17546,"BSTAR":9.1243939e-5,"MEAN_MOTION_DOT":1.164e-5,"MEAN_MOTION_DDOT":0},{"OBJECT_NAME":"STARLINK-4264","OBJECT_ID":"2022-076H","EPOCH":"2025-09-09T12:54:01.344384","MEAN_MOTION":15.08841262,"ECCENTRICITY":0.00013844,"INCLINATION":53.2173,"RA_OF_ASC_NODE":187.3452,"ARG_OF_PERICENTER":92.3292,"MEAN_ANOMALY":267.7859,"EPHEMERIS_TYPE":0,"CLASSIFICATION_TYPE":"U","NORAD_CAT_ID":52993,"ELEMENT_SET_NO":999,"REV_AT_EPOCH":17549,"BSTAR":4.6792745e-5,"MEAN_MOTION_DOT":4.57e-6,"MEAN_MOTION_DDOT":0},{"OBJECT_NAME":"STARLINK-4256","OBJECT_ID":"2022-076J","EPOCH":"2025-09-09T23:56:25.490400","MEAN_MOTION":15.08834359,"ECCENTRICITY":0.00012777,"INCLINATION":53.2172,"RA_OF_ASC_NODE":185.2798,"ARG_OF_PERICENTER":96.9434,"MEAN_ANOMALY":263.1704,"EPHEMERIS_TYPE":0,"CLASSIFICATION_TYPE":"U","NORAD_CAT_ID":52994,"ELEMENT_SET_NO":999,"REV_AT_EPOCH":17556,"BSTAR":0.00011044002,"MEAN_MOTION_DOT":1.47e-5,"MEAN_MOTION_DDOT":0},{"OBJECT_NAME":"STARLINK-4296","OBJECT_ID":"2022-076K","EPOCH":"2025-09-10T04:31:58.940832","MEAN_MOTION":15.08835945,"ECCENTRICITY":0.00011821,"INCLINATION":53.2168,"RA_OF_ASC_NODE":184.4215,"ARG_OF_PERICENTER":96.274,"MEAN_ANOMALY":263.8387,"EPHEMERIS_TYPE":0,"CLASSIFICATION_TYPE":"U","NORAD_CAT_ID":52995,"ELEMENT_SET_NO":999,"REV_AT_EPOCH":17559,"BSTAR":6.9453462e-5,"MEAN_MOTION_DOT":8.18e-6,"MEAN_MOTION_DDOT":0},{"OBJECT_NAME":"STARLINK-4295","OBJECT_ID":"2022-076L","EPOCH":"2025-09-10T05:15:47.712672","MEAN_MOTION":15.08842972,"ECCENTRICITY":0.00013681,"INCLINATION":53.2172,"RA_OF_ASC_NODE":184.5657,"ARG_OF_PERICENTER":86.9114,"MEAN_ANOMALY":273.2034,"EPHEMERIS_TYPE":0,"CLASSIFICATION_TYPE":"U","NORAD_CAT_ID":52996,"ELEMENT_SET_NO":999,"REV_AT_EPOCH":17559,"BSTAR":8.2375947e-5,"MEAN_MOTION_DOT":1.023e-5,"MEAN_MOTION_DDOT":0},{"OBJECT_NAME":"STARLINK-4254","OBJECT_ID":"2022-076N","EPOCH":"2025-09-10T05:51:25.512192","MEAN_MOTION":15.08849186,"ECCENTRICITY":0.00011732,"INCLINATION":53.2171,"RA_OF_ASC_NODE":184.0835,"ARG_OF_PERICENTER":86.0821,"MEAN_ANOMALY":274.0306,"EPHEMERIS_TYPE":0,"CLASSIFICATION_TYPE":"U","NORAD_CAT_ID":52998,"ELEMENT_SET_NO":999,"REV_AT_EPOCH":17560,"BSTAR":0.00017370197,"MEAN_MOTION_DOT":2.478e-5,"MEAN_MOTION_DDOT":0},{"OBJECT_NAME":"STARLINK-4217","OBJECT_ID":"2022-076P","EPOCH":"2025-09-10T05:40:51.931488","MEAN_MOTION":15.08838017,"ECCENTRICITY":0.00013068,"INCLINATION":53.2175,"RA_OF_ASC_NODE":184.206,"ARG_OF_PERICENTER":94.195,"MEAN_ANOMALY":265.9192,"EPHEMERIS_TYPE":0,"CLASSIFICATION_TYPE":"U","NORAD_CAT_ID":52999,"ELEMENT_SET_NO":999,"REV_AT_EPOCH":17560,"BSTAR":9.7515318e-5,"MEAN_MOTION_DOT":1.264e-5,"MEAN_MOTION_DDOT":0},{"OBJECT_NAME":"STARLINK-4194","OBJECT_ID":"2022-076Q","EPOCH":"2025-09-10T06:02:03.970176","MEAN_MOTION":15.08841434,"ECCENTRICITY":0.00013158,"INCLINATION":53.2171,"RA_OF_ASC_NODE":184.1392,"ARG_OF_PERICENTER":92.4997,"MEAN_ANOMALY":267.6146,"EPHEMERIS_TYPE":0,"CLASSIFICATION_TYPE":"U","NORAD_CAT_ID":53000,"ELEMENT_SET_NO":999,"REV_AT_EPOCH":17560,"BSTAR":0.00019404447,"MEAN_MOTION_DOT":2.802e-5,"MEAN_MOTION_DDOT":0}]
