STARLINK-4186           
1 52880U 22062BC  25253.28087334 -.00000062  00000+0  14219-4 0  9996
2 52880  53.2173 104.0049 0001299  88.0646 272.0495 15.08835933178838
STARLINK-4181           
1 52882U 22062BE  25253.29922463  .00001378  00000+0  10463-3 0  9996
2 52882  53.2172 103.5018 0001296  95.0774 265.0366 15.08837817178849
STARLINK-4260           
1 52986U 22076A   25253.20726943  .00001363  00000+0  10372-3 0  9995
2 52986  53.2166 184.3376 0001332  85.9185 274.1959 15.08841761175597
STARLINK-4259           
1 52987U 22076B   25252.98187287  .00000963  00000+0  78564-4 0  9995
2 52987  53.2163 195.3504 0001374  85.8250 274.2899 15.08836864175422
STARLINK-4291           
1 52988U 22076C   25253.07111754  .00001552  00000+0  11559-3 0  9998
2 52988  53.2171 184.9500 0001326  86.2786 273.8358 15.08833961175574
STARLINK-4293           
1 52989U 22076D   25253.24315595  .00000450  00000+0  46397-4 0  9992
2 52989  53.2156 194.1765 0001433  88.0362 272.0794 15.08837070175461
STARLINK-4286           
1 52990U 22076E   25252.24588033 -.00000010  00000+0  17485-4 0  9991
2 52990  53.2166 198.6569 0001354  81.4313 278.6832 15.08838552175315
STARLINK-4285           
1 52991U 22076F   25253.10331826  .00002219  00000+0  15742-3 0  9999
2 52991  53.2172 194.8057 0001506  89.2305 270.8860 15.08848637175443
STARLINK-4269           
1 52992U 22076G   25253.23307274  .00001164  00000+0  91244-4 0  9994
2 52992  53.2176 194.2323 0001355  88.4479 271.6668 15.08838543175465
STARLINK-4264           
1 52993U 22076H   25252.53751556  .00000457  00000+0  46793-4 0  9996
2 52993  53.2173 187.3452 0001384  92.3292 267.7859 15.08841262175491
STARLINK-4256           
1 52994U 22076J   25252.99751725  .00001470  00000+0  11044-3 0  9991
2 52994  53.2172 185.2798 0001277  96.9434 263.1704 15.08834359175566
STARLINK-4296           
1 52995U 22076K   25253.18887663  .00000818  00000+0  69453-4 0  9998
2 52995  53.2168 184.4215 0001182  96.2740 263.8387 15.08835945175594
STARLINK-4295           
1 52996U 22076L   25253.21930223  .00001023  00000+0  82376-4 0  9992
2 52996  53.2172 184.5657 0001368  86.9114 273.2034 15.08842972175590
STARLINK-4254           
1 52998U 22076N   25253.24404528  .00002478  00000+0  17370-3 0  9997
2 52998  53.2171 184.0835 0001173  86.0821 274.0306 15.08849186175601
STARLINK-4217           
1 52999U 22076P   25253.23671217  .00001264  00000+0  97515-4 0  9990
2 52999  53.2175 184.2060 0001306  94.1950 265.9192 15.08838017175602
STARLINK-4194           
1 53000U 22076Q   25253.25143484  .00002802  00000+0  19404-3 0  9995
2 53000  53.2171 184.1392 0001315  92.4997 267.6146 15.08841434175606
